{"spkid": "50647217", "covariance": {"epoch": "2456845.5", "elements": [{"label": "e", "value": ".1990469570913397", "title": "eccentricity", "units": null, "name": "e", "sigma": 3.92235321785571e-08}, {"label": "q", "sigma": 4.36152934200704e-08, "name": "q", "units": "au", "title": "perihelion distance", "value": ".9332509647719189"}, {"label": "tp", "title": "time of perihelion passage", "value": "2456636.427883525468", "units": "TDB", "name": "tp", "sigma": 1.6548231303846e-05}, {"label": "node", "units": "deg", "title": "longitude of the ascending node", "value": "332.844436478811", "sigma": 3.36278474204095e-05, "name": "om"}, {"label": "peri", "title": "argument of perihelion", "value": "108.2699690824213", "units": "deg", "name": "w", "sigma": 3.79568100222166e-05}, {"title": "inclination", "value": "3.50078267640529", "units": "deg", "name": "i", "sigma": 5.58417603508748e-06, "label": "i"}], "data": [["1.538485476562306E-15", "-1.708823789308446E-15", "-2.381102619059558E-14", "-1.19808434844796E-13", "2.65120612912435E-13", "-3.092492715079481E-14"], ["-1.708823789308446E-15", "1.902293820118838E-15", "4.138544375964278E-15", "1.509418019103032E-13", "-3.29773318777536E-13", "3.257022181775442E-14"], ["-2.381102619059558E-14", "4.138544375964278E-15", "2.7384395928559E-10", "-5.00839536097857E-11", "2.721559473062698E-10", "3.952699702017917E-11"], ["-1.19808434844796E-13", "1.509418019103032E-13", "-5.00839536097857E-11", "1.13083212213034E-9", "-1.184875973805649E-9", "6.643100624860086E-11"], ["2.65120612912435E-13", "-3.29773318777536E-13", "2.721559473062698E-10", "-1.184875973805649E-9", "1.440719427062639E-9", "-3.968338222605475E-11"], ["-3.092492715079481E-14", "3.257022181775442E-14", "3.952699702017917E-11", "6.643100624860086E-11", "-3.968338222605475E-11", "3.118302199084537E-11"]], "labels": ["e", "q", "tp", "node", "peri", "i"]}, "elements": [{"title": "eccentricity", "value": ".1999875371211855", "units": null, "name": "e", "sigma": "3.942E-8", "label": "e"}, {"label": "a", "sigma": "5.2113E-9", "name": "a", "value": "1.167491755024432", "title": "semi-major axis", "units": "au"}, {"label": "q", "units": "au", "value": ".9340079543278057", "title": "perihelion distance", "name": "q", "sigma": "4.2616E-8"}, {"label": "i", "units": "deg", "value": "3.511860793346306", "title": "inclination; angle with respect to x-y ecliptic plane", "name": "i", "sigma": "5.5885E-6"}, {"label": "node", "name": "om", "sigma": "3.3574E-5", "title": "longitude of the ascending node", "value": "332.5776318201796", "units": "deg"}, {"label": "peri", "sigma": "3.8332E-5", "name": "w", "units": "deg", "title": "argument of perihelion", "value": "108.9098508898527"}, {"label": "M", "title": "mean anomaly", "value": "330.3955643339317", "units": "deg", "sigma": "1.8901E-5", "name": "ma"}, {"label": "tp", "units": "TDB", "title": "time of perihelion passage", "value": "2461238.390771332176", "name": "tp", "sigma": "2.4391E-5"}, {"label": "period", "value": "460.7646581562081", "title": "sidereal orbital period", "units": "d", "name": "per", "sigma": "3.085E-6"}, {"title": "mean motion", "value": ".7813099239003549", "units": "deg/d", "sigma": "5.2312E-9", "name": "n", "label": "n"}, {"name": "ad", "sigma": "6.2535E-9", "units": "au", "value": "1.400975555721059", "title": "aphelion distance", "label": "Q"}], "epoch": "2461200.5"}